[{"OBJECT_NAME":"STARLINK-2251","OBJECT_ID":"2021-041AT","EPOCH":"2026-03-09T08:22:16.294944","MEAN_MOTION":15.06402763,"ECCENTRICITY":0.00015187,"INCLINATION":53.0549,"RA_OF_ASC_NODE":113.2361,"ARG_OF_PERICENTER":88.7145,"MEAN_ANOMALY":271.4018,"EPHEMERIS_TYPE":0,"CLASSIFICATION_TYPE":"U","NORAD_CAT_ID":48594,"ELEMENT_SET_NO":999,"REV_AT_EPOCH":26543,"BSTAR":0.00012513479,"MEAN_MOTION_DOT":1.583e-5,"MEAN_MOTION_DDOT":0},{"OBJECT_NAME":"ICEYE-X36","OBJECT_ID":"2024-043F","EPOCH":"2026-03-09T21:10:59.920608","MEAN_MOTION":15.05951442,"ECCENTRICITY":0.00048011,"INCLINATION":97.8198,"RA_OF_ASC_NODE":205.3571,"ARG_OF_PERICENTER":299.2298,"MEAN_ANOMALY":60.8448,"EPHEMERIS_TYPE":0,"CLASSIFICATION_TYPE":"U","NORAD_CAT_ID":59103,"ELEMENT_SET_NO":999,"REV_AT_EPOCH":11019,"BSTAR":0.00042378527,"MEAN_MOTION_DOT":6.107e-5,"MEAN_MOTION_DDOT":0}]
